QIANFAN-17              
1 60395U 24140S   26013.87783681  .00000125  00000+0  17397-3 0  9991
2 60395  88.9790 296.1168 0016436 108.9699 251.3235 13.50985084 72475
QIANFAN-18              
1 60396U 24140T   26013.85724605  .00000104  00000+0  14248-3 0  9990
2 60396  88.9783 295.6501 0016020  93.2563 267.0421 13.50985130 71863
QIANFAN-19              
1 61552U 24185A   26013.84698223  .00000321  00000+0  16051-3 0  9994
2 61552  88.9794  74.2652 0006796 183.0034 177.1113 14.14331907 74206
QIANFAN-20              
1 61553U 24185B   26013.86162280  .00000280  00000+0  15394-3 0  9999
2 61553  88.9793  74.6199 0004476 226.1798 133.9016 14.08879599 74013
QIANFAN-21              
1 61554U 24185C   26013.82425312  .00000419  00000+0  18103-3 0  9999
2 61554  88.9708  73.2242 0008489 253.7524 106.2733 14.22655530 74534
QIANFAN-22              
1 61555U 24185D   26013.83694524  .00000141  00000+0  11058-3 0  9998
2 61555  88.9777  75.7329 0004543 248.5377 111.5310 13.86316239 73380
QIANFAN-23              
1 61556U 24185E   26013.84782194  .00000387  00000+0  18775-3 0  9996
2 61556  88.9785  74.0596 0007026 196.1684 163.9281 14.16326992 74296
QIANFAN-24              
1 61557U 24185F   26013.87017843  .00000490  00000+0  20795-3 0  9992
2 61557  88.9767  73.4093 0009490 179.6185 180.5016 14.23857944 74599
